[{"OBJECT_NAME":"STARLINK-34884","OBJECT_ID":"2025-247Y","EPOCH":"2025-12-09T03:45:48.047904","MEAN_MOTION":15.39644653,"ECCENTRICITY":0.0001253,"INCLINATION":53.1586,"RA_OF_ASC_NODE":254.0124,"ARG_OF_PERICENTER":99.4182,"MEAN_ANOMALY":260.6964,"EPHEMERIS_TYPE":0,"CLASSIFICATION_TYPE":"U","NORAD_CAT_ID":66287,"ELEMENT_SET_NO":999,"REV_AT_EPOCH":714,"BSTAR":0.0016378,"MEAN_MOTION_DOT":0.00065732,"MEAN_MOTION_DDOT":0},{"OBJECT_NAME":"STARLINK-34896","OBJECT_ID":"2025-247Z","EPOCH":"2025-12-09T04:00:01.998720","MEAN_MOTION":15.39564417,"ECCENTRICITY":0.0001306,"INCLINATION":53.1584,"RA_OF_ASC_NODE":253.9637,"ARG_OF_PERICENTER":85.2019,"MEAN_ANOMALY":331.5979,"EPHEMERIS_TYPE":0,"CLASSIFICATION_TYPE":"U","NORAD_CAT_ID":66288,"ELEMENT_SET_NO":999,"REV_AT_EPOCH":602,"BSTAR":0.0026231,"MEAN_MOTION_DOT":0.00105797,"MEAN_MOTION_DDOT":0},{"OBJECT_NAME":"STARLINK-35802","OBJECT_ID":"2025-247AA","EPOCH":"2025-12-09T00:32:09.516768","MEAN_MOTION":15.39616094,"ECCENTRICITY":0.0002607,"INCLINATION":53.1596,"RA_OF_ASC_NODE":254.5962,"ARG_OF_PERICENTER":149.7401,"MEAN_ANOMALY":210.3755,"EPHEMERIS_TYPE":0,"CLASSIFICATION_TYPE":"U","NORAD_CAT_ID":66289,"ELEMENT_SET_NO":999,"REV_AT_EPOCH":712,"BSTAR":0.0019569,"MEAN_MOTION_DOT":0.00078682,"MEAN_MOTION_DDOT":0},{"OBJECT_NAME":"STARLINK-35799","OBJECT_ID":"2025-247AB","EPOCH":"2025-12-09T03:38:37.722336","MEAN_MOTION":15.39647735,"ECCENTRICITY":8.66e-5,"INCLINATION":53.1596,"RA_OF_ASC_NODE":253.9812,"ARG_OF_PERICENTER":123.5975,"MEAN_ANOMALY":236.5112,"EPHEMERIS_TYPE":0,"CLASSIFICATION_TYPE":"U","NORAD_CAT_ID":66290,"ELEMENT_SET_NO":999,"REV_AT_EPOCH":719,"BSTAR":0.0013293,"MEAN_MOTION_DOT":0.00053192,"MEAN_MOTION_DDOT":0},{"OBJECT_NAME":"STARLINK-35800","OBJECT_ID":"2025-247AC","EPOCH":"2025-12-09T04:00:01.998720","MEAN_MOTION":15.39572271,"ECCENTRICITY":0.0001405,"INCLINATION":53.1596,"RA_OF_ASC_NODE":253.8607,"ARG_OF_PERICENTER":80.071,"MEAN_ANOMALY":28.2324,"EPHEMERIS_TYPE":0,"CLASSIFICATION_TYPE":"U","NORAD_CAT_ID":66291,"ELEMENT_SET_NO":999,"REV_AT_EPOCH":602,"BSTAR":0.0022797,"MEAN_MOTION_DOT":0.00091748,"MEAN_MOTION_DDOT":0},{"OBJECT_NAME":"STARLINK-35798","OBJECT_ID":"2025-247AD","EPOCH":"2025-12-09T03:32:25.111968","MEAN_MOTION":15.39668635,"ECCENTRICITY":7.7e-5,"INCLINATION":53.1598,"RA_OF_ASC_NODE":253.9533,"ARG_OF_PERICENTER":154.0621,"MEAN_ANOMALY":206.0423,"EPHEMERIS_TYPE":0,"CLASSIFICATION_TYPE":"U","NORAD_CAT_ID":66292,"ELEMENT_SET_NO":999,"REV_AT_EPOCH":713,"BSTAR":0.0012933,"MEAN_MOTION_DOT":0.00051767,"MEAN_MOTION_DDOT":0},{"OBJECT_NAME":"STARLINK-35442","OBJECT_ID":"2025-253A","EPOCH":"2025-12-08T10:06:46.285920","MEAN_MOTION":15.40714311,"ECCENTRICITY":0.00018254,"INCLINATION":43.0018,"RA_OF_ASC_NODE":10.7669,"ARG_OF_PERICENTER":246.7377,"MEAN_ANOMALY":113.3288,"EPHEMERIS_TYPE":0,"CLASSIFICATION_TYPE":"U","NORAD_CAT_ID":66319,"ELEMENT_SET_NO":999,"REV_AT_EPOCH":625,"BSTAR":0.0017990292,"MEAN_MOTION_DOT":0.00075632,"MEAN_MOTION_DDOT":0},{"OBJECT_NAME":"STARLINK-34616","OBJECT_ID":"2025-253B","EPOCH":"2025-12-09T02:28:29.588736","MEAN_MOTION":15.40741207,"ECCENTRICITY":6.88e-5,"INCLINATION":43.0007,"RA_OF_ASC_NODE":6.4162,"ARG_OF_PERICENTER":276.7358,"MEAN_ANOMALY":83.342,"EPHEMERIS_TYPE":0,"CLASSIFICATION_TYPE":"U","NORAD_CAT_ID":66320,"ELEMENT_SET_NO":999,"REV_AT_EPOCH":644,"BSTAR":0.0012305,"MEAN_MOTION_DOT":0.00051516,"MEAN_MOTION_DDOT":0},{"OBJECT_NAME":"STARLINK-34615","OBJECT_ID":"2025-253C","EPOCH":"2025-12-08T10:25:54.958368","MEAN_MOTION":15.5059825,"ECCENTRICITY":0.00011169,"INCLINATION":42.9979,"RA_OF_ASC_NODE":9.1134,"ARG_OF_PERICENTER":276.8577,"MEAN_ANOMALY":83.2156,"EPHEMERIS_TYPE":0,"CLASSIFICATION_TYPE":"U","NORAD_CAT_ID":66321,"ELEMENT_SET_NO":999,"REV_AT_EPOCH":627,"BSTAR":0.001379198,"MEAN_MOTION_DOT":0.00081471,"MEAN_MOTION_DDOT":0},{"OBJECT_NAME":"STARLINK-35292","OBJECT_ID":"2025-253D","EPOCH":"2025-12-08T22:23:55.122432","MEAN_MOTION":15.4073465,"ECCENTRICITY":0.00013721,"INCLINATION":43.0009,"RA_OF_ASC_NODE":7.7261,"ARG_OF_PERICENTER":252.711,"MEAN_ANOMALY":107.3596,"EPHEMERIS_TYPE":0,"CLASSIFICATION_TYPE":"U","NORAD_CAT_ID":66322,"ELEMENT_SET_NO":999,"REV_AT_EPOCH":633,"BSTAR":0.0021520299,"MEAN_MOTION_DOT":0.00090773,"MEAN_MOTION_DDOT":0},{"OBJECT_NAME":"STARLINK-35309","OBJECT_ID":"2025-253E","EPOCH":"2025-12-09T04:00:01.998720","MEAN_MOTION":15.42738266,"ECCENTRICITY":0.0001166,"INCLINATION":43.0001,"RA_OF_ASC_NODE":5.6619,"ARG_OF_PERICENTER":263.2417,"MEAN_ANOMALY":249.989,"EPHEMERIS_TYPE":0,"CLASSIFICATION_TYPE":"U","NORAD_CAT_ID":66323,"ELEMENT_SET_NO":999,"REV_AT_EPOCH":613,"BSTAR":-0.053874,"MEAN_MOTION_DOT":-0.02129636,"MEAN_MOTION_DDOT":0},{"OBJECT_NAME":"STARLINK-35506","OBJECT_ID":"2025-253F","EPOCH":"2025-12-04T04:13:46.495776","MEAN_MOTION":15.50596968,"ECCENTRICITY":8.735e-5,"INCLINATION":43.0012,"RA_OF_ASC_NODE":34.803,"ARG_OF_PERICENTER":273.2034,"MEAN_ANOMALY":86.8726,"EPHEMERIS_TYPE":0,"CLASSIFICATION_TYPE":"U","NORAD_CAT_ID":66324,"ELEMENT_SET_NO":999,"REV_AT_EPOCH":560,"BSTAR":0.0002009229,"MEAN_MOTION_DOT":0.0001147,"MEAN_MOTION_DDOT":0},{"OBJECT_NAME":"STARLINK-35504","OBJECT_ID":"2025-253G","EPOCH":"2025-12-09T04:14:44.475360","MEAN_MOTION":15.40748663,"ECCENTRICITY":0.0001539,"INCLINATION":43.0013,"RA_OF_ASC_NODE":6.1098,"ARG_OF_PERICENTER":267.3777,"MEAN_ANOMALY":92.6903,"EPHEMERIS_TYPE":0,"CLASSIFICATION_TYPE":"U","NORAD_CAT_ID":66325,"ELEMENT_SET_NO":999,"REV_AT_EPOCH":637,"BSTAR":0.0012665,"MEAN_MOTION_DOT":0.00053057,"MEAN_MOTION_DDOT":0},{"OBJECT_NAME":"STARLINK-35479","OBJECT_ID":"2025-253H","EPOCH":"2025-12-04T15:00:38.013408","MEAN_MOTION":15.50615042,"ECCENTRICITY":0.0001415,"INCLINATION":43.0005,"RA_OF_ASC_NODE":32.1514,"ARG_OF_PERICENTER":287.7439,"MEAN_ANOMALY":72.3267,"EPHEMERIS_TYPE":0,"CLASSIFICATION_TYPE":"U","NORAD_CAT_ID":66326,"ELEMENT_SET_NO":999,"REV_AT_EPOCH":567,"BSTAR":0.001591,"MEAN_MOTION_DOT":0.00094247,"MEAN_MOTION_DDOT":0},{"OBJECT_NAME":"STARLINK-35507","OBJECT_ID":"2025-253J","EPOCH":"2025-12-09T04:00:01.998720","MEAN_MOTION":15.40644629,"ECCENTRICITY":0.000167,"INCLINATION":43.0002,"RA_OF_ASC_NODE":5.718,"ARG_OF_PERICENTER":270.4062,"MEAN_ANOMALY":219.5595,"EPHEMERIS_TYPE":0,"CLASSIFICATION_TYPE":"U","NORAD_CAT_ID":66327,"ELEMENT_SET_NO":999,"REV_AT_EPOCH":608,"BSTAR":0.00092184,"MEAN_MOTION_DOT":0.00038327,"MEAN_MOTION_DDOT":0},{"OBJECT_NAME":"STARLINK-35460","OBJECT_ID":"2025-253K","EPOCH":"2025-12-09T02:38:09.845088","MEAN_MOTION":15.40748492,"ECCENTRICITY":7.87e-5,"INCLINATION":42.9982,"RA_OF_ASC_NODE":6.466,"ARG_OF_PERICENTER":268.4211,"MEAN_ANOMALY":91.6555,"EPHEMERIS_TYPE":0,"CLASSIFICATION_TYPE":"U","NORAD_CAT_ID":66328,"ELEMENT_SET_NO":999,"REV_AT_EPOCH":636,"BSTAR":0.001171,"MEAN_MOTION_DOT":0.00049007,"MEAN_MOTION_DDOT":0},{"OBJECT_NAME":"STARLINK-35505","OBJECT_ID":"2025-253L","EPOCH":"2025-12-07T09:33:00.362304","MEAN_MOTION":15.50665519,"ECCENTRICITY":0.00029736,"INCLINATION":43.0005,"RA_OF_ASC_NODE":15.9762,"ARG_OF_PERICENTER":348.0229,"MEAN_ANOMALY":12.056,"EPHEMERIS_TYPE":0,"CLASSIFICATION_TYPE":"U","NORAD_CAT_ID":66329,"ELEMENT_SET_NO":999,"REV_AT_EPOCH":610,"BSTAR":0.002866612,"MEAN_MOTION_DOT":0.00172118,"MEAN_MOTION_DDOT":0},{"OBJECT_NAME":"STARLINK-35512","OBJECT_ID":"2025-253M","EPOCH":"2025-12-09T02:57:31.525056","MEAN_MOTION":15.40727217,"ECCENTRICITY":0.0001579,"INCLINATION":42.9996,"RA_OF_ASC_NODE":6.5699,"ARG_OF_PERICENTER":261.4085,"MEAN_ANOMALY":98.6593,"EPHEMERIS_TYPE":0,"CLASSIFICATION_TYPE":"U","NORAD_CAT_ID":66330,"ELEMENT_SET_NO":999,"REV_AT_EPOCH":636,"BSTAR":0.0014736,"MEAN_MOTION_DOT":0.00061809,"MEAN_MOTION_DDOT":0},{"OBJECT_NAME":"STARLINK-35257","OBJECT_ID":"2025-253N","EPOCH":"2025-12-09T04:00:01.998720","MEAN_MOTION":15.40665908,"ECCENTRICITY":0.0001035,"INCLINATION":43.0001,"RA_OF_ASC_NODE":5.806,"ARG_OF_PERICENTER":250.6184,"MEAN_ANOMALY":202.001,"EPHEMERIS_TYPE":0,"CLASSIFICATION_TYPE":"U","NORAD_CAT_ID":66331,"ELEMENT_SET_NO":999,"REV_AT_EPOCH":608,"BSTAR":0.00064346,"MEAN_MOTION_DOT":0.00026638,"MEAN_MOTION_DDOT":0},{"OBJECT_NAME":"STARLINK-35322","OBJECT_ID":"2025-253P","EPOCH":"2025-12-09T02:34:56.483616","MEAN_MOTION":15.40740303,"ECCENTRICITY":0.0001338,"INCLINATION":43.0015,"RA_OF_ASC_NODE":6.4481,"ARG_OF_PERICENTER":253.0627,"MEAN_ANOMALY":107.0083,"EPHEMERIS_TYPE":0,"CLASSIFICATION_TYPE":"U","NORAD_CAT_ID":66332,"ELEMENT_SET_NO":999,"REV_AT_EPOCH":636,"BSTAR":0.0019725,"MEAN_MOTION_DOT":0.00083106,"MEAN_MOTION_DDOT":0},{"OBJECT_NAME":"STARLINK-35400","OBJECT_ID":"2025-253Q","EPOCH":"2025-12-09T02:15:35.146656","MEAN_MOTION":15.40742926,"ECCENTRICITY":8.96e-5,"INCLINATION":42.9999,"RA_OF_ASC_NODE":6.3445,"ARG_OF_PERICENTER":264.46,"MEAN_ANOMALY":95.6154,"EPHEMERIS_TYPE":0,"CLASSIFICATION_TYPE":"U","NORAD_CAT_ID":66333,"ELEMENT_SET_NO":999,"REV_AT_EPOCH":636,"BSTAR":0.0013533,"MEAN_MOTION_DOT":0.00056729,"MEAN_MOTION_DDOT":0},{"OBJECT_NAME":"STARLINK-35407","OBJECT_ID":"2025-253R","EPOCH":"2025-12-09T02:47:50.720928","MEAN_MOTION":15.40745612,"ECCENTRICITY":8.43e-5,"INCLINATION":42.9992,"RA_OF_ASC_NODE":6.5176,"ARG_OF_PERICENTER":274.6642,"MEAN_ANOMALY":85.4118,"EPHEMERIS_TYPE":0,"CLASSIFICATION_TYPE":"U","NORAD_CAT_ID":66334,"ELEMENT_SET_NO":999,"REV_AT_EPOCH":636,"BSTAR":0.0012648,"MEAN_MOTION_DOT":0.00052977,"MEAN_MOTION_DDOT":0},{"OBJECT_NAME":"STARLINK-35417","OBJECT_ID":"2025-253S","EPOCH":"2025-12-08T19:20:27.251808","MEAN_MOTION":15.40684275,"ECCENTRICITY":0.0001967,"INCLINATION":43.0017,"RA_OF_ASC_NODE":8.4878,"ARG_OF_PERICENTER":271.4595,"MEAN_ANOMALY":88.6036,"EPHEMERIS_TYPE":0,"CLASSIFICATION_TYPE":"U","NORAD_CAT_ID":66335,"ELEMENT_SET_NO":999,"REV_AT_EPOCH":631,"BSTAR":0.001417912,"MEAN_MOTION_DOT":0.00059358,"MEAN_MOTION_DDOT":0}]
